NORAD_CAT_ID,OBJECT_NAME,OBJECT_TYPE,EPOCH,MEAN_MOTION,ECCENTRICITY,INCLINATION,RA_OF_ASC_NODE,ARG_OF_PERICENTER,MEAN_ANOMALY,BSTAR,MEAN_MOTION_DOT,MEAN_MOTION_DDOT,TLE_LINE0,TLE_LINE1,TLE_LINE2,SEMIMAJOR_AXIS,PERIOD,APOGEE,PERIGEE,DECAYED
53257.0,STARLINK-4144,PAYLOAD,2023-10-01 21:03:19,15.08841271,0.0001608,53.2163,228.6391,91.1655,268.9522,0.00013204,1.814e-05,0.0,0 STARLINK-4144,1 53257U 22086R   23274.87730628  .00001814  00000-0  13204-3 0  9996,2 53257  53.2163 228.6391 0001608  91.1655 268.9522 15.08841271 66730,6917.877,95.437,540.854,538.629,0.0
53257.0,STARLINK-4144,PAYLOAD,2023-10-02 03:24:51,15.08847615,0.0001637,53.216,227.4491,96.3165,263.8013,0.00035309,5.337e-05,0.0,0 STARLINK-4144,1 53257U 22086R   23275.14226476  .00005337  00000-0  35309-3 0  9992,2 53257  53.2160 227.4491 0001637  96.3165 263.8013 15.08847615 66591,6917.857,95.437,540.855,538.59,0.0
53257.0,STARLINK-4144,PAYLOAD,2023-10-02 06:35:37,15.08849937,0.0001651,53.2162,226.8541,96.7498,263.3682,0.00044385,6.785e-05,0.0,0 STARLINK-4144,1 53257U 22086R   23275.27474440  .00006785  00000-0  44385-3 0  9994,2 53257  53.2162 226.8541 0001651  96.7498 263.3682 15.08849937 66799,6917.85,95.437,540.857,538.573,0.0
53257.0,STARLINK-4144,PAYLOAD,2023-10-03 03:15:38,15.08844084,0.0001524,53.2156,222.9885,95.4282,264.6884,0.00019956,2.89e-05,0.0,0 STARLINK-4144,1 53257U 22086R   23276.13586622  .00002890  00000-0  19956-3 0  9995,2 53257  53.2156 222.9885 0001524  95.4282 264.6884 15.08844084 66747,6917.868,95.437,540.787,538.679,0.0
53257.0,STARLINK-4144,PAYLOAD,2023-10-03 06:26:25,15.08845922,0.0001512,53.2154,222.3934,95.909,264.2075,0.00020848,3.032e-05,0.0,0 STARLINK-4144,1 53257U 22086R   23276.26834493  .00003032  00000-0  20848-3 0  9992,2 53257  53.2154 222.3934 0001512  95.9090 264.2075 15.08845922 66945,6917.862,95.437,540.773,538.681,0.0
53257.0,STARLINK-4144,PAYLOAD,2023-10-04 06:17:12,15.08839893,0.0001393,53.2163,217.9338,97.4317,262.6833,4.4048e-05,4.13e-06,0.0,0 STARLINK-4144,1 53257U 22086R   23277.26194957  .00000413  00000-0  44048-4 0  9996,2 53257  53.2163 217.9338 0001393  97.4317 262.6833 15.08839893 66910,6917.881,95.438,540.709,538.782,0.0
53257.0,STARLINK-4144,PAYLOAD,2023-10-04 12:38:45,15.0884057,0.0002148,53.2161,216.7454,84.5947,275.529,4.2103e-05,3.82e-06,0.0,0 STARLINK-4144,1 53257U 22086R   23277.52691216  .00000382  00000-0  42103-4 0  9990,2 53257  53.2161 216.7454 0002148  84.5947 275.5290 15.08840570 67138,6917.879,95.438,541.23,538.258,0.0
53257.0,STARLINK-4144,PAYLOAD,2023-10-04 20:35:40,15.08841186,0.000157,53.2153,215.2588,101.7101,258.4067,8.8155e-05,1.115e-05,0.0,0 STARLINK-4144,1 53257U 22086R   23277.85811052  .00001115  00000-0  88155-4 0  9990,2 53257  53.2153 215.2588 0001570 101.7101 258.4067 15.08841186 67184,6917.877,95.437,540.828,538.656,0.0
53257.0,STARLINK-4144,PAYLOAD,2023-10-05 02:57:12,15.08851325,0.000111,53.2149,214.0692,92.5669,267.5451,0.00028486,4.25e-05,0.0,0 STARLINK-4144,1 53257U 22086R   23278.12306281  .00004250  00000-0  28486-3 0  9997,2 53257  53.2149 214.0692 0001110  92.5669 267.5451 15.08851325 67047,6917.846,95.437,540.479,538.943,0.0
53257.0,STARLINK-4144,PAYLOAD,2023-10-05 12:29:31,15.08840156,0.0001585,53.2164,212.2849,89.2631,270.8542,0.00011062,1.473e-05,0.0,0 STARLINK-4144,1 53257U 22086R   23278.52050871  .00001473  00000-0  11062-3 0  9998,2 53257  53.2164 212.2849 0001585  89.2631 270.8542 15.08840156 67280,6917.88,95.438,540.841,538.648,0.0
53257.0,STARLINK-4144,PAYLOAD,2023-10-06 04:23:23,15.08854158,0.0001501,53.2151,209.3122,96.7805,263.3358,0.00034032,5.134e-05,0.0,0 STARLINK-4144,1 53257U 22086R   23279.18290540  .00005134  00000-0  34032-3 0  9990,2 53257  53.2151 209.3122 0001501  96.7805 263.3358 15.08854158 67202,6917.837,95.437,540.74,538.664,0.0
53257.0,STARLINK-4144,PAYLOAD,2023-10-06 12:20:19,15.08842219,0.0002215,53.215,207.8255,80.8287,279.2955,0.0001115,1.487e-05,0.0,0 STARLINK-4144,1 53257U 22086R   23279.51411217  .00001487  00000-0  11150-3 0  9996,2 53257  53.2150 207.8255 0002215  80.8287 279.2955 15.08842219 67431,6917.874,95.437,541.271,538.206,0.0
53257.0,STARLINK-4144,PAYLOAD,2023-10-07 01:03:24,15.08834935,0.0001773,53.216,205.447,83.6393,276.4801,-9.9007e-05,-1.863e-05,0.0,0 STARLINK-4144,1 53257U 22086R   23280.04403481 -.00001863  00000-0 -99007-4 0  9998,2 53257  53.2160 205.4470 0001773  83.6393 276.4801 15.08834935 67336,6917.896,95.438,540.987,538.534,0.0
53257.0,STARLINK-4144,PAYLOAD,2023-10-07 04:14:10,15.08845705,0.0001517,53.2155,204.8508,86.1376,273.979,0.00014669,2.048e-05,0.0,0 STARLINK-4144,1 53257U 22086R   23280.17651005  .00002048  00000-0  14669-3 0  9993,2 53257  53.2155 204.8508 0001517  86.1376 273.9790 15.08845705 67358,6917.863,95.437,540.777,538.679,0.0
53257.0,STARLINK-4144,PAYLOAD,2023-10-07 12:11:06,15.08839862,0.000155,53.2155,203.3651,92.8921,267.2248,6.8414e-05,8.01e-06,0.0,0 STARLINK-4144,1 53257U 22086R   23280.50771295  .00000801  00000-0  68414-4 0  9997,2 53257  53.2155 203.3651 0001550  92.8921 267.2248 15.08839862 67584,6917.881,95.438,540.818,538.674,0.0
53257.0,STARLINK-4144,PAYLOAD,2023-10-07 18:32:39,15.08837631,0.0001689,53.2159,202.1765,91.0355,269.083,0.00010783,1.428e-05,0.0,0 STARLINK-4144,1 53257U 22086R   23280.77267520  .00001428  00000-0  10783-3 0  9998,2 53257  53.2159 202.1765 0001689  91.0355 269.0830 15.08837631 67440,6917.888,95.438,540.921,538.584,0.0
53257.0,STARLINK-4144,PAYLOAD,2023-10-08 02:29:34,15.08855207,0.0001679,53.2162,200.6871,98.371,261.7473,0.00034001,5.13e-05,0.0,0 STARLINK-4144,1 53257U 22086R   23281.10386792  .00005130  00000-0  34001-3 0  9992,2 53257  53.2162 200.6871 0001679  98.3710 261.7473 15.08855207 67495,6917.834,95.437,540.86,538.537,0.0
53257.0,STARLINK-4144,PAYLOAD,2023-10-08 12:01:53,15.08840642,0.0001793,53.2159,198.9041,88.3877,271.7321,0.00011206,1.496e-05,0.0,0 STARLINK-4144,1 53257U 22086R   23281.50131489  .00001496  00000-0  11206-3 0  9990,2 53257  53.2159 198.9041 0001793  88.3877 271.7321 15.08840642 67736,6917.878,95.438,540.984,538.503,0.0
53257.0,STARLINK-4144,PAYLOAD,2023-10-08 18:23:26,15.08839208,0.0001909,53.2166,197.7151,83.3104,276.8106,0.00016513,2.341e-05,0.0,0 STARLINK-4144,1 53257U 22086R   23281.76627710  .00002341  00000-0  16513-3 0  9991,2 53257  53.2166 197.7151 0001909  83.3104 276.8106 15.08839208 67597,6917.883,95.438,541.068,538.427,0.0
53257.0,STARLINK-4144,PAYLOAD,2023-10-09 00:44:58,15.0885012,0.0001446,53.2148,196.5257,89.6526,270.4632,0.00024659,3.64e-05,0.0,0 STARLINK-4144,1 53257U 22086R   23282.03123056  .00003640  00000-0  24659-3 0  9999,2 53257  53.2148 196.5257 0001446  89.6526 270.4632 15.08850120 67639,6917.849,95.437,540.715,538.714,0.0
53257.0,STARLINK-4144,PAYLOAD,2023-10-09 11:52:41,15.08831852,0.0002119,53.2158,194.4453,77.5141,282.6088,-6.8571e-05,-1.379e-05,0.0,0 STARLINK-4144,1 53257U 22086R   23282.49491942 -.00001379  00000-0 -68571-4 0  9992,2 53257  53.2158 194.4453 0002119  77.5141 282.6088 15.08831852 67880,6917.905,95.438,541.236,538.304,0.0
53257.0,STARLINK-4144,PAYLOAD,2023-10-09 18:14:13,15.08836455,0.0001983,53.2146,193.2564,75.0563,285.0648,6.3944e-05,7.3e-06,0.0,0 STARLINK-4144,1 53257U 22086R   23282.75987971  .00000730  00000-0  63944-4 0  9990,2 53257  53.2146 193.2564 0001983  75.0563 285.0648 15.08836455 67744,6917.891,95.438,541.128,538.384,0.0
53257.0,STARLINK-4144,PAYLOAD,2023-10-09 21:24:59,15.0883417,0.0001634,53.2157,192.6616,76.8925,283.2249,3.4774e-05,2.65e-06,0.0,0 STARLINK-4144,1 53257U 22086R   23282.89235950  .00000265  00000-0  34774-4 0  9990,2 53257  53.2157 192.6616 0001634  76.8925 283.2249 15.08834170 67942,6917.898,95.438,540.894,538.633,0.0
53257.0,STARLINK-4144,PAYLOAD,2023-10-10 03:46:32,15.0884265,0.0001753,53.2158,191.4686,89.8824,270.2369,0.00026857,3.989e-05,0.0,0 STARLINK-4144,1 53257U 22086R   23283.15731757  .00003989  00000-0  26857-3 0  9994,2 53257  53.2158 191.4686 0001753  89.8824 270.2369 15.08842650 67986,6917.872,95.437,540.95,538.525,0.0
53257.0,STARLINK-4144,PAYLOAD,2023-10-10 21:15:47,15.08839286,0.0001311,53.2152,188.1994,80.0882,280.0258,0.00037212,5.639e-05,0.0,0 STARLINK-4144,1 53257U 22086R   23283.88596134  .00005639  00000-0  37212-3 0  9993,2 53257  53.2152 188.1994 0001311  80.0882 280.0258 15.08839286 68092,6917.883,95.438,540.655,538.841,0.0
53257.0,STARLINK-4144,PAYLOAD,2023-10-11 00:26:33,15.08847218,0.0001441,53.2164,187.6027,91.0068,269.1089,0.00041875,6.384e-05,0.0,0 STARLINK-4144,1 53257U 22086R   23284.01843874  .00006384  00000-0  41875-3 0  9993,2 53257  53.2164 187.6027 0001441  91.0068 269.1089 15.08847218 67934,6917.858,95.437,540.72,538.726,0.0
53257.0,STARLINK-4144,PAYLOAD,2023-10-11 03:37:19,15.08848972,0.0001455,53.2163,187.0082,90.5895,269.5264,0.00059829,9.249e-05,0.0,0 STARLINK-4144,1 53257U 22086R   23284.15091909  .00009249  00000-0  59829-3 0  9993,2 53257  53.2163 187.0082 0001455  90.5895 269.5264 15.08848972 68135,6917.853,95.437,540.725,538.711,0.0
53257.0,STARLINK-4144,PAYLOAD,2023-10-11 17:55:47,15.08839737,0.0001193,53.2167,184.3337,96.0254,264.0874,0.00014223,1.976e-05,0.0,0 STARLINK-4144,1 53257U 22086R   23284.74708067  .00001976  00000-0  14223-3 0  9996,2 53257  53.2167 184.3337 0001193  96.0254 264.0874 15.08839737 68047,6917.881,95.438,540.571,538.921,0.0
53257.0,STARLINK-4144,PAYLOAD,2023-10-12 01:52:43,15.0885648,0.0001469,53.2163,182.8465,101.5431,258.5726,0.00097159,0.00015216,0.0,0 STARLINK-4144,1 53257U 22086R   23285.07827811  .00015216  00000-0  97159-3 0  9993,2 53257  53.2163 182.8465 0001469 101.5431 258.5726 15.08856480 68096,6917.83,95.437,540.711,538.679,0.0
53257.0,STARLINK-4144,PAYLOAD,2023-10-12 09:49:39,15.08847955,0.0002048,53.2168,181.3598,86.8324,273.2903,0.00064173,9.942e-05,0.0,0 STARLINK-4144,1 53257U 22086R   23285.40948203  .00009942  00000-0  64173-3 0  9998,2 53257  53.2168 181.3598 0002048  86.8324 273.2903 15.08847955 68326,6917.856,95.437,541.138,538.304,0.0
